{"type": "FeatureCollection", "features": [ {"type": "Feature", "properties": {"norad_id": 30134, "name": "FENGYUN 1C DEB", "group": "fengyun-1c-debris", "lat": 79.25624555944393, "lon": -52.02277508586836, "alt_km": 845.5424719603661, "timestamp": "2025-12-08T13:49:32.066806+00:00", "meta": {"OBJECT_NAME": "FENGYUN 1C DEB", "OBJECT_ID": "1999-025SP", "EPOCH": "2025-12-07T06:55:20.593056", "MEAN_MOTION": 14.13333905, "ECCENTRICITY": 0.0018735, "INCLINATION": 98.6941, "RA_OF_ASC_NODE": 0.474, "ARG_OF_PERICENTER": 198.8979, "MEAN_ANOMALY": 177.1675, "EPHEMERIS_TYPE": 0, "CLASSIFICATION_TYPE": "U", "NORAD_CAT_ID": 30134, "ELEMENT_SET_NO": 999, "REV_AT_EPOCH": 97169, "BSTAR": 0.00079518271, "MEAN_MOTION_DOT": 1.452e-05, "MEAN_MOTION_DDOT": 0}, "tle": {"line1": "1 30134U 99025SP  25341.28843279  .00001452  00000+0  79518-3 0  9998", "line2": "2 30134  98.6941   0.4740 0018735 198.8979 177.1675 14.13333905971698"}}, "geometry": {"type": "Point", "coordinates": [-52.02277508586836, 79.25624555944393]}}, {"type": "Feature", "properties": {"norad_id": 30136, "name": "FENGYUN 1C DEB", "group": "fengyun-1c-debris", "lat": 4.758901082118533, "lon": -124.98304243360035, "alt_km": 888.3799799481385, "timestamp": "2025-12-08T13:49:32.066817+00:00", "meta": {"OBJECT_NAME": "FENGYUN 1C DEB", "OBJECT_ID": "1999-025SR", "EPOCH": "2025-12-08T04:11:54.588768", "MEAN_MOTION": 13.9531602, "ECCENTRICITY": 0.01294248, "INCLINATION": 98.5571, "RA_OF_ASC_NODE": 235.3627, "ARG_OF_PERICENTER": 82.072, "MEAN_ANOMALY": 70.4832, "EPHEMERIS_TYPE": 0, "CLASSIFICATION_TYPE": "U", "NORAD_CAT_ID": 30136, "ELEMENT_SET_NO": 999, "REV_AT_EPOCH": 96027, "BSTAR": 0.00072475795, "MEAN_MOTION_DOT": 1.013e-05, "MEAN_MOTION_DDOT": 0}, "tle": {"line1": "1 30136U 99025SR  25342.17493737  .00001013  00000+0  72476-3 0  9998", "line2": "2 30136  98.5571 235.3627 0129424  82.0720  70.4832 13.95316020960277"}}, "geometry": {"type": "Point", "coordinates": [-124.98304243360035, 4.758901082118533]}}, {"type": "Feature", "properties": {"norad_id": 30138, "name": "FENGYUN 1C DEB", "group": "fengyun-1c-debris", "lat": 80.20137519783447, "lon": -27.337194175718434, "alt_km": 811.4413572651356, "timestamp": "2025-12-08T13:49:32.066827+00:00", "meta": {"OBJECT_NAME": "FENGYUN 1C DEB", "OBJECT_ID": "1999-025ST", "EPOCH": "2025-12-08T03:23:46.853664", "MEAN_MOTION": 14.20003727, "ECCENTRICITY": 0.00204112, "INCLINATION": 98.7593, "RA_OF_ASC_NODE": 35.451, "ARG_OF_PERICENTER": 150.8694, "MEAN_ANOMALY": 234.768, "EPHEMERIS_TYPE": 0, "CLASSIFICATION_TYPE": "U", "NORAD_CAT_ID": 30138, "ELEMENT_SET_NO": 999, "REV_AT_EPOCH": 97336, "BSTAR": 0.0011818356, "MEAN_MOTION_DOT": 2.476e-05, "MEAN_MOTION_DDOT": 0}, "tle": {"line1": "1 30138U 99025ST  25342.14151451  .00002476  00000+0  11818-2 0  9997", "line2": "2 30138  98.7593  35.4510 0020411 150.8694 234.7680 14.20003727973361"}}, "geometry": {"type": "Point", "coordinates": [-27.337194175718434, 80.20137519783447]}}, {"type": "Feature", "properties": {"norad_id": 30139, "name": "FENGYUN 1C DEB", "group": "fengyun-1c-debris", "lat": 11.022352072619084, "lon": 8.134869694203843, "alt_km": 947.6070102786052, "timestamp": "2025-12-08T13:49:32.066837+00:00", "meta": {"OBJECT_NAME": "FENGYUN 1C DEB", "OBJECT_ID": "1999-025SU", "EPOCH": "2025-12-07T20:01:07.161024", "MEAN_MOTION": 14.03627671, "ECCENTRICITY": 0.01312626, "INCLINATION": 98.3647, "RA_OF_ASC_NODE": 185.8097, "ARG_OF_PERICENTER": 304.398, "MEAN_ANOMALY": 78.3977, "EPHEMERIS_TYPE": 0, "CLASSIFICATION_TYPE": "U", "NORAD_CAT_ID": 30139, "ELEMENT_SET_NO": 999, "REV_AT_EPOCH": 96181, "BSTAR": 0.0019384598, "MEAN_MOTION_DOT": 3.246e-05, "MEAN_MOTION_DDOT": 0}, "tle": {"line1": "1 30139U 99025SU  25341.83411066  .00003246  00000+0  19385-2 0  9997", "line2": "2 30139  98.3647 185.8097 0131262 304.3980  78.3977 14.03627671961818"}}, "geometry": {"type": "Point", "coordinates": [8.134869694203843, 11.022352072619084]}}, {"type": "Feature", "properties": {"norad_id": 30140, "name": "FENGYUN 1C DEB", "group": "fengyun-1c-debris", "lat": -67.84141883583214, "lon": -156.9769959602643, "alt_km": 821.3248687865034, "timestamp": "2025-12-08T13:49:32.066847+00:00", "meta": {"OBJECT_NAME": "FENGYUN 1C DEB", "OBJECT_ID": "1999-025SV", "EPOCH": "2025-12-06T22:38:10.114368", "MEAN_MOTION": 14.20701394, "ECCENTRICITY": 0.00405022, "INCLINATION": 98.8269, "RA_OF_ASC_NODE": 43.8228, "ARG_OF_PERICENTER": 326.8409, "MEAN_ANOMALY": 216.329, "EPHEMERIS_TYPE": 0, "CLASSIFICATION_TYPE": "U", "NORAD_CAT_ID": 30140, "ELEMENT_SET_NO": 999, "REV_AT_EPOCH": 97061, "BSTAR": 0.0021287513, "MEAN_MOTION_DOT": 4.584e-05, "MEAN_MOTION_DDOT": 0}, "tle": {"line1": "1 30140U 99025SV  25340.94317262  .00004584  00000+0  21288-2 0  9994", "line2": "2 30140  98.8269  43.8228 0040502 326.8409 216.3290 14.20701394970619"}}, "geometry": {"type": "Point", "coordinates": [-156.9769959602643, -67.84141883583214]}}, {"type": "Feature", "properties": {"norad_id": 30141, "name": "FENGYUN 1C DEB", "group": "fengyun-1c-debris", "lat": -25.04829623486631, "lon": 79.79224968254806, "alt_km": 739.2505077490796, "timestamp": "2025-12-08T13:49:32.066858+00:00", "meta": {"OBJECT_NAME": "FENGYUN 1C DEB", "OBJECT_ID": "1999-025SW", "EPOCH": "2025-12-08T01:18:08.280864", "MEAN_MOTION": 14.51410014, "ECCENTRICITY": 0.00192283, "INCLINATION": 99.0142, "RA_OF_ASC_NODE": 263.4876, "ARG_OF_PERICENTER": 48.4481, "MEAN_ANOMALY": 311.8357, "EPHEMERIS_TYPE": 0, "CLASSIFICATION_TYPE": "U", "NORAD_CAT_ID": 30141, "ELEMENT_SET_NO": 999, "REV_AT_EPOCH": 98176, "BSTAR": 0.0033607619, "MEAN_MOTION_DOT": 0.00013414, "MEAN_MOTION_DDOT": 0}, "tle": {"line1": "1 30141U 99025SW  25342.05426251  .00013414  00000+0  33608-2 0  9999", "line2": "2 30141  99.0142 263.4876 0019228  48.4481 311.8357 14.51410014981763"}}, "geometry": {"type": "Point", "coordinates": [79.79224968254806, -25.04829623486631]}}, {"type": "Feature", "properties": {"norad_id": 30142, "name": "FENGYUN 1C DEB", "group": "fengyun-1c-debris", "lat": -48.5526517278307, "lon": 68.77781721957453, "alt_km": 792.5439003057363, "timestamp": "2025-12-08T13:49:32.066869+00:00", "meta": {"OBJECT_NAME": "FENGYUN 1C DEB", "OBJECT_ID": "1999-025SX", "EPOCH": "2025-12-08T03:50:23.389152", "MEAN_MOTION": 14.10439672, "ECCENTRICITY": 0.01009376, "INCLINATION": 99.1285, "RA_OF_ASC_NODE": 57.865, "ARG_OF_PERICENTER": 321.1832, "MEAN_ANOMALY": 38.2117, "EPHEMERIS_TYPE": 0, "CLASSIFICATION_TYPE": "U", "NORAD_CAT_ID": 30142, "ELEMENT_SET_NO": 999, "REV_AT_EPOCH": 96234, "BSTAR": 0.0020915785, "MEAN_MOTION_DOT": 3.855e-05, "MEAN_MOTION_DDOT": 0}, "tle": {"line1": "1 30142U 99025SX  25342.15999293  .00003855  00000+0  20916-2 0  9998", "line2": "2 30142  99.1285  57.8650 0100937 321.1832  38.2117 14.10439672962340"}}, "geometry": {"type": "Point", "coordinates": [68.77781721957453, -48.5526517278307]}}, {"type": "Feature", "properties": {"norad_id": 30143, "name": "FENGYUN 1C DEB", "group": "fengyun-1c-debris", "lat": 0.7367686940201901, "lon": 165.91982643150837, "alt_km": 847.5999779181866, "timestamp": "2025-12-08T13:49:32.066879+00:00", "meta": {"OBJECT_NAME": "FENGYUN 1C DEB", "OBJECT_ID": "1999-025SY", "EPOCH": "2025-12-08T02:25:52.417632", "MEAN_MOTION": 14.02556112, "ECCENTRICITY": 0.01039378, "INCLINATION": 98.7346, "RA_OF_ASC_NODE": 165.5778, "ARG_OF_PERICENTER": 303.8008, "MEAN_ANOMALY": 180.1954, "EPHEMERIS_TYPE": 0, "CLASSIFICATION_TYPE": "U", "NORAD_CAT_ID": 30143, "ELEMENT_SET_NO": 999, "REV_AT_EPOCH": 96154, "BSTAR": 0.0017562547, "MEAN_MOTION_DOT": 2.794e-05, "MEAN_MOTION_DDOT": 0}, "tle": {"line1": "1 30143U 99025SY  25342.10130113  .00002794  00000+0  17563-2 0  9997", "line2": "2 30143  98.7346 165.5778 0103937 303.8008 180.1954 14.02556112961544"}}, "geometry": {"type": "Point", "coordinates": [165.91982643150837, 0.7367686940201901]}}, {"type": "Feature", "properties": {"norad_id": 30144, "name": "FENGYUN 1C DEB", "group": "fengyun-1c-debris", "lat": -28.085345598846224, "lon": 150.61746937637537, "alt_km": 933.0908750332756, "timestamp": "2025-12-08T13:49:32.066890+00:00", "meta": {"OBJECT_NAME": "FENGYUN 1C DEB", "OBJECT_ID": "1999-025SZ", "EPOCH": "2025-12-08T05:58:16.194720", "MEAN_MOTION": 13.91808279, "ECCENTRICITY": 0.01258781, "INCLINATION": 99.0098, "RA_OF_ASC_NODE": 335.1562, "ARG_OF_PERICENTER": 303.1358, "MEAN_ANOMALY": 67.7825, "EPHEMERIS_TYPE": 0, "CLASSIFICATION_TYPE": "U", "NORAD_CAT_ID": 30144, "ELEMENT_SET_NO": 999, "REV_AT_EPOCH": 95778, "BSTAR": 0.00096231058, "MEAN_MOTION_DOT": 1.262e-05, "MEAN_MOTION_DDOT": 0}, "tle": {"line1": "1 30144U 99025SZ  25342.24879855  .00001262  00000+0  96231-3 0  9995", "line2": "2 30144  99.0098 335.1562 0125878 303.1358  67.7825 13.91808279957787"}}, "geometry": {"type": "Point", "coordinates": [150.61746937637537, -28.085345598846224]}}, {"type": "Feature", "properties": {"norad_id": 30145, "name": "FENGYUN 1C DEB", "group": "fengyun-1c-debris", "lat": -46.09576145804166, "lon": 101.77232040519019, "alt_km": 911.8067065019823, "timestamp": "2025-12-08T13:49:32.066901+00:00", "meta": {"OBJECT_NAME": "FENGYUN 1C DEB", "OBJECT_ID": "1999-025TA", "EPOCH": "2025-12-08T07:33:23.581728", "MEAN_MOTION": 14.13945828, "ECCENTRICITY": 0.00921653, "INCLINATION": 99.2705, "RA_OF_ASC_NODE": 91.7311, "ARG_OF_PERICENTER": 160.8983, "MEAN_ANOMALY": 262.9364, "EPHEMERIS_TYPE": 0, "CLASSIFICATION_TYPE": "U", "NORAD_CAT_ID": 30145, "ELEMENT_SET_NO": 999, "REV_AT_EPOCH": 96133, "BSTAR": 0.0041164919, "MEAN_MOTION_DOT": 8.098e-05, "MEAN_MOTION_DDOT": 0}, "tle": {"line1": "1 30145U 99025TA  25342.31485627  .00008098  00000+0  41165-2 0  9993", "line2": "2 30145  99.2705  91.7311 0092165 160.8983 262.9364 14.13945828961336"}}, "geometry": {"type": "Point", "coordinates": [101.77232040519019, -46.09576145804166]}}]}